[{"OBJECT_NAME":"BLUEBON","OBJECT_ID":"2025-009CH","EPOCH":"2026-03-09T16:52:33.225312","MEAN_MOTION":15.29047254,"ECCENTRICITY":0.00011933,"INCLINATION":97.4017,"RA_OF_ASC_NODE":152.2033,"ARG_OF_PERICENTER":43.39,"MEAN_ANOMALY":316.7434,"EPHEMERIS_TYPE":0,"CLASSIFICATION_TYPE":"U","NORAD_CAT_ID":62688,"ELEMENT_SET_NO":999,"REV_AT_EPOCH":6376,"BSTAR":0.00037313027,"MEAN_MOTION_DOT":0.00010452,"MEAN_MOTION_DDOT":0},{"OBJECT_NAME":"STARLINK-36427","OBJECT_ID":"2026-002AE","EPOCH":"2026-03-08T17:52:19.944192","MEAN_MOTION":15.2758496,"ECCENTRICITY":4.265e-5,"INCLINATION":42.9939,"RA_OF_ASC_NODE":330.6507,"ARG_OF_PERICENTER":294.3069,"MEAN_ANOMALY":65.7738,"EPHEMERIS_TYPE":0,"CLASSIFICATION_TYPE":"U","NORAD_CAT_ID":67333,"ELEMENT_SET_NO":999,"REV_AT_EPOCH":1099,"BSTAR":0.0012747018,"MEAN_MOTION_DOT":0.00034987,"MEAN_MOTION_DDOT":0}]
